NSS-11                  
1 26554U 00059A   26178.55531052  .00000035  00000+0  00000+0 0  9992
2 26554   2.1528  81.2774 0003136   9.4697 200.8246  1.00272898 41395
AMC-6                   
1 26580U 00067A   26178.50054155  .00000100  00000+0  00000+0 0  9992
2 26580   0.1783  83.4326 0003980  22.8073 214.5160  1.00272974 93991
AMC-15                  
1 28446U 04041A   26178.35773770 -.00000077  00000+0  00000+0 0  9999
2 28446   0.0216  33.8364 0002537  56.1023 209.2626  1.00272213 79401
NSS-10                  
1 28526U 05003A   26178.51371947 -.00000246  00000+0  00000+0 0  9993
2 28526   6.4746  70.3302 0003177  17.6529 335.1264  1.00272319 53259
ASTRA 1KR               
1 29055U 06012A   26178.32753022  .00000130  00000+0  00000+0 0  9990
2 29055   0.4998  83.2417 0003821   4.0359 325.0867  1.00269432 45796
ASTRA 1L                
1 31306U 07016A   26178.30236943 -.00000174  00000+0  00000+0 0  9992
2 31306   1.3475  81.5136 0005709  18.8605 259.3870  1.00270436 45082
ASTRA 4A                
1 32299U 07057A   26178.52195284  .00000044  00000+0  00000+0 0  9990
2 32299   0.0175 327.4508 0002641 128.6731  12.2046  1.00271367 51750
ASTRA 1M                
1 33436U 08057A   26178.31103616  .00000132  00000+0  00000+0 0  9998
2 33436   0.3223  82.6342 0004949  26.6304 297.5299  1.00269592 45830
NSS-9                   
1 33749U 09008A   26178.48198575  .00000082  00000+0  00000+0 0  9992
2 33749   1.2880  82.5692 0002466   3.4171 186.1912  1.00270807 63623
SES-7 (PROTOSTAR 2)     
1 34941U 09027A   26178.48169678 -.00000333  00000+0  00000+0 0  9990
2 34941   0.0386  67.0757 0000355 336.6379 153.5283  1.00271093 62730
NSS-12                  
1 36032U 09058A   26178.46111646  .00000083  00000+0  00000+0 0  9998
2 36032   0.0744 276.8529 0005085 148.1013  73.6164  1.00270667 61021
SES-1                   
1 36516U 10016A   26178.50106608 -.00000103  00000+0  00000+0 0  9992
2 36516   0.0274 305.5441 0002972 147.3505 262.0954  1.00271883 59139
ASTRA 3B                
1 36581U 10021A   26178.52578218  .00000147  00000+0  00000+0 0  9999
2 36581   1.4957  83.4351 0004234   9.9920  34.9997  1.00268873 58972
SES-3                   
1 37748U 11035A   26178.50071940 -.00000091  00000+0  00000+0 0  9998
2 37748   1.3530  82.9933 0002506   1.5020 268.3668  1.00272483 54698
ASTRA 1N                
1 37775U 11041A   26178.31103616  .00000131  00000+0  00000+0 0  9994
2 37775   0.0820  38.2103 0005938  57.1344 311.2293  1.00270683 44621
SES-2                   
1 37809U 11049A   26178.50383941 -.00000184  00000+0  00000+0 0  9991
2 37809   0.0864  94.5110 0003105 359.4390 276.0447  1.00272142 54063
QUETZSAT 1              
1 37826U 11054A   26178.50583277 -.00000230  00000+0  00000+0 0  9992
2 37826   0.0132 336.2122 0002972 122.4091 282.1019  1.00272287 49973
SES-4                   
1 38087U 12007A   26178.37411778 -.00000156  00000+0  00000+0 0  9999
2 38087   0.0220  41.8386 0002467  53.2358 293.0998  1.00271575 52327
SES-5                   
1 38652U 12036A   26178.52212617  .00000045  00000+0  00000+0 0  9993
2 38652   0.0455 318.1392 0002369 133.5086  16.9182  1.00269092 44568
ASTRA 2F                
1 38778U 12051A   26178.52664883  .00000162  00000+0  00000+0 0  9995
2 38778   0.0821 257.2086 0002016 270.0687 326.1580  1.00270088 41247
SES-6                   
1 39172U 13026A   26178.51311279 -.00000250  00000+0  00000+0 0  9993
2 39172   0.0183  18.0098 0002912  83.1547 318.6778  1.00270687 47826
O3B FM5                 
1 39188U 13031A   26178.43429025 -.00000022  00000+0  00000+0 0  9993
2 39188   0.0971 340.9272 0002898 101.3660 277.7391  5.00115666237546
O3B FM4                 
1 39189U 13031B   26178.35383568 -.00000022  00000+0  00000+0 0  9996
2 39189   0.0417 346.5081 0005103  95.8683 277.6809  5.00115361237552
O3B FM2                 
1 39190U 13031C   26178.21943763 -.00000022  00000+0  00000+0 0  9992
2 39190   0.0364 341.8412 0002756 110.2468 267.9429  5.00116116237611
O3B PFM                 
1 39191U 13031D   26178.03366703 -.00000022  00000+0  00000+0 0  9996
2 39191   0.0673 349.9902 0005347  97.8980 272.1725  5.00116129237156
ASTRA 2E                
1 39285U 13056A   26178.52673551  .00000162  00000+0  00000+0 0  9997
2 39285   0.0614 331.4693 0002547 132.8490  29.4202  1.00271265 46524
SES-8                   
1 39460U 13071A   26178.13864480 -.00000258  00000+0  00000+0 0  9996
2 39460   0.0321 279.6169 0003078 174.6635 325.8872  1.00271179 44528
ASTRA 5B                
1 39617U 14011B   26178.52578218  .00000149  00000+0  00000+0 0  9997
2 39617   0.0522 326.6148 0002212 114.4311  47.3410  1.00272872 44779
O3B FM3                 
1 40079U 14038A   26178.30023854 -.00000022  00000+0  00000+0 0  9998
2 40079   0.0479 353.3661 0002423 159.1584 207.4877  5.00115776213545
O3B FM7                 
1 40080U 14038B   26178.24635745 -.00000022  00000+0  00000+0 0  9991
2 40080   0.0464 344.4806 0003741  83.4147 292.1437  5.00115709218387
O3B FM6                 
1 40081U 14038C   26178.27333529 -.00000022  00000+0  00000+0 0  9990
2 40081   0.0467 350.1725 0002644 104.6139 265.2431  5.00115798218331
O3B FM8                 
1 40082U 14038D   26178.32658243 -.00000022  00000+0  00000+0 0  9990
2 40082   0.0466 348.9334 0002770 108.8281 262.2693  5.00116134218451
O3B FM10                
1 40348U 14083A   26177.95404213 -.00000022  00000+0  00000+0 0  9999
2 40348   0.0370 329.6242 0002886 123.5525 266.8556  5.00115541210379
O3B FM11                
1 40349U 14083B   26178.36646856 -.00000022  00000+0  00000+0 0  9997
2 40349   0.0554 353.2742 0002652  85.7930 280.9620  5.00115584210424
O3B FM12                
1 40350U 14083C   26178.39347316 -.00000022  00000+0  00000+0 0  9991
2 40350   0.0544 353.3892 0002523  99.9857 266.6533  5.00116042210439
O3B FM9                 
1 40351U 14083D   26178.22041172 -.00000022  00000+0  00000+0 0  9995
2 40351   0.0562 352.5880 0002696 101.0583 266.3838  5.00116079210570
ASTRA 2G                
1 40364U 14089A   26178.52664883  .00000162  00000+0  00000+0 0  9992
2 40364   0.0496 337.0544 0004784 102.9076  53.4525  1.00273951 42077
SES-9                   
1 41380U 16013A   26178.48169678 -.00000333  00000+0  00000+0 0  9998
2 41380   0.0138 329.4106 0002438 120.0207 107.8712  1.00272669 37542
SES-10                  
1 42432U 17017A   26178.29396273 -.00000261  00000+0  00000+0 0  9994
2 42432   0.0188  38.1681 0003064  63.7527 212.4183  1.00272066 33858
SES-15                  
1 42709U 17026A   26178.42427005  .00000071  00000+0  00000+0 0  9992
2 42709   0.0203 333.7086 0001081 157.7213 167.6801  1.00273031  7536
SES-11 (ECHOSTAR 105)   
1 42967U 17063A   26178.50028605 -.00000078  00000+0  00000+0 0  9999
2 42967   0.0301 309.0968 0002995 144.2817 257.3904  1.00271771 31821
SES-14                  
1 43175U 18012B   26178.51172611 -.00000267  00000+0  00000+0 0  9994
2 43175   0.0146  22.8852 0001284  69.5074 319.9490  1.00271860  7126
O3B FM15                
1 43231U 18024A   26178.28722144 -.00000022  00000+0  00000+0 0  9995
2 43231   0.0519   1.1916 0002631  92.1116 266.7262  5.00115855151536
O3B FM16                
1 43232U 18024B   26177.73987901 -.00000022  00000+0  00000+0 0  9999
2 43232   0.0517   5.8288 0002648  86.8919 267.3089  5.00116060151428
O3B FM14                
1 43233U 18024C   26178.38035920 -.00000022  00000+0  00000+0 0  9997
2 43233   0.0505   6.7190 0002887  89.5858 263.7273  5.00115814151460
O3B FM13                
1 43234U 18024D   26176.44781757 -.00000022  00000+0  00000+0 0  9999
2 43234   0.0460 307.2672 0005301 336.5768  76.0961  5.00090867151474
SES-12                  
1 43488U 18049A   26178.46865647 -.00000257  00000+0  00000+0 0  9992
2 43488   0.0119  10.4018 0000387 247.7169 281.1702  1.00270375 29522
O3B FM20                
1 44112U 19020A   26177.20707588 -.00000022  00000+0  00000+0 0  9997
2 44112   0.0523 357.6369 0002417  89.5366 272.8534  5.00115666132023
O3B FM19                
1 44113U 19020B   26178.43343596 -.00000022  00000+0  00000+0 0  9999
2 44113   0.0758 337.8645 0003852  99.6725 282.5055  5.00116053131943
O3B FM17                
1 44114U 19020C   26178.31371441 -.00000022  00000+0  00000+0 0  9997
2 44114   0.0346   9.2349 0002587  85.7827 265.0113  5.00115626132038
O3B FM18                
1 44115U 19020D   26178.45993970 -.00000022  00000+0  00000+0 0  9990
2 44115   0.0527 357.3829 0002775  98.8465 263.8015  5.00115445132162
SES-17                  
1 49332U 21095A   26178.18447569 -.00000261  00000+0  00000+0 0  9994
2 49332   0.0244  40.4143 0001348  74.2632 159.9340  1.00271164 17954
SES-22                  
1 52933U 22071A   26178.49361270  .00000116  00000+0  00000+0 0  9996
2 52933   0.0117 324.7849 0001335 119.7636 229.7474  1.00270695  7625
SES-20                  
1 53960U 22123A   26178.42938339 -.00000089  00000+0  00000+0 0  9994
2 53960   0.0189  56.8083 0002110  40.7840 229.4162  1.00268378 13634
SES-21                  
1 53961U 22123B   26178.49906000  .00000000  00000+0  00000+0 0  9994
2 53961   0.0393  21.2126 0000853  77.1379 225.9953  1.00268092  7319
O3B MPOWER F1           
1 54755U 22174A   26178.46680155 -.00000022  00000+0  00000+0 0  9994
2 54755   0.0511 340.7580 0006516 127.9297 123.5924  5.00114896 65873
O3B MPOWER F2           
1 54756U 22174B   26178.50447126 -.00000022  00000+0  00000+0 0  9999
2 54756   0.0469 340.5013 0005842 111.5177 268.0472  5.00115084 65954
SES-18                  
1 55970U 23038A   26178.50071940 -.00000089  00000+0  00000+0 0  9998
2 55970   0.0341 281.1732 0000621 222.4698 209.1222  1.00272257 12201
SES-19                  
1 55971U 23038B   26178.49439271  .00000099  00000+0  00000+0 0  9992
2 55971   0.0123 329.0623 0001998 128.9317 220.6767  1.00272853 12199
O3B MPOWER F4           
1 56367U 23059A   26178.36882887 -.00000022  00000+0  00000+0 0  9993
2 56367   0.0632 352.9261 0007678 108.8872 258.2723  5.00115558 59104
O3B MPOWER F3           
1 56368U 23059B   26178.40199491 -.00000022  00000+0  00000+0 0  9991
2 56368   0.0640 352.3146 0006718 101.8215 265.9401  5.00116600 55246
O3B MPOWER F5           
1 58346U 23175A   26178.50297485 -.00000022  00000+0  00000+0 0  9991
2 58346   0.0502  10.7263 0005298 103.8745 245.4537  5.00116044 49943
O3B MPOWER F6           
1 58347U 23175B   26178.40355427 -.00000022  00000+0  00000+0 0  9992
2 58347   0.0529   2.4962 0004486  90.2171 267.3374  5.00116049 48864
ASTRA 1P (SES-24)       
1 60086U 24115A   26178.31103616  .00000132  00000+0  00000+0 0  9992
2 60086   0.0605 341.1012 0000270 149.5183 275.9817  1.00271801  7292
O3B MPOWER F7           
1 62362U 24244A   26178.46993744 -.00000022  00000+0  00000+0 0  9998
2 62362   0.0672 346.2021 0006018 106.4167 267.4495  5.00115508 27049
O3B MPOWER F8           
1 62363U 24244B   26178.43688036 -.00000022  00000+0  00000+0 0  9991
2 62363   0.0148 342.8771 0005881 102.5902 274.5992  5.00115133 21378
O3B MPOWER F9           
1 64866U 25153A   26178.17039689 -.00000022  00000+0  00000+0 0  9996
2 64866   0.0595   8.4187 0006517 107.8761 243.7715  5.00115792 20065
O3B MPOWER F10          
1 64867U 25153B   26177.93652678 -.00000022  00000+0  00000+0 0  9999
2 64867   0.0571   4.5494 0001978 248.0709 107.3573  5.00114976 22527
